{"type": "FeatureCollection", "features": [ {"type": "Feature", "properties": {"norad_id": 28649, "name": "IRS-P5 (CARTOSAT-1)", "group": "resource", "lat": 13.455214673066902, "lon": -160.1780863075499, "alt_km": 598.105112463365, "timestamp": "2025-12-17T19:34:07.701213+00:00", "meta": {"OBJECT_NAME": "IRS-P5 (CARTOSAT-1)", "OBJECT_ID": "2005-017A", "EPOCH": "2025-12-17T07:32:45.906144", "MEAN_MOTION": 14.90420475, "ECCENTRICITY": 9.363e-05, "INCLINATION": 97.549, "RA_OF_ASC_NODE": 17.525, "ARG_OF_PERICENTER": 45.3995, "MEAN_ANOMALY": 314.73, "EPHEMERIS_TYPE": 0, "CLASSIFICATION_TYPE": "U", "NORAD_CAT_ID": 28649, "ELEMENT_SET_NO": 999, "REV_AT_EPOCH": 11672, "BSTAR": 0.0001486043, "MEAN_MOTION_DOT": 1.396e-05, "MEAN_MOTION_DDOT": 0}, "tle": {"line1": "1 28649U 05017A   25351.31442021  .00001396  00000+0  14860-3 0  9995", "line2": "2 28649  97.5490  17.5250 0000936  45.3995 314.7300 14.90420475116729"}}, "geometry": {"type": "Point", "coordinates": [-160.1780863075499, 13.455214673066902]}}, {"type": "Feature", "properties": {"norad_id": 28893, "name": "SINAH 1", "group": "resource", "lat": 36.67700270701258, "lon": 114.17470990475844, "alt_km": 676.785151009296, "timestamp": "2025-12-17T19:34:07.701224+00:00", "meta": {"OBJECT_NAME": "SINAH 1", "OBJECT_ID": "2005-043D", "EPOCH": "2025-12-17T07:55:01.771968", "MEAN_MOTION": 14.63967545, "ECCENTRICITY": 0.0015534, "INCLINATION": 98.2606, "RA_OF_ASC_NODE": 119.8994, "ARG_OF_PERICENTER": 123.5157, "MEAN_ANOMALY": 236.7532, "EPHEMERIS_TYPE": 0, "CLASSIFICATION_TYPE": "U", "NORAD_CAT_ID": 28893, "ELEMENT_SET_NO": 999, "REV_AT_EPOCH": 7391, "BSTAR": 8.0162732e-05, "MEAN_MOTION_DOT": 3.71e-06, "MEAN_MOTION_DDOT": 0}, "tle": {"line1": "1 28893U 05043D   25351.32988162  .00000371  00000+0  80163-4 0  9999", "line2": "2 28893  98.2606 119.8994 0015534 123.5157 236.7532 14.63967545 73914"}}, "geometry": {"type": "Point", "coordinates": [114.17470990475844, 36.67700270701258]}}, {"type": "Feature", "properties": {"norad_id": 29079, "name": "EROS B", "group": "resource", "lat": 15.201257353917521, "lon": -69.35481020322763, "alt_km": 361.8774568765948, "timestamp": "2025-12-17T19:34:07.701235+00:00", "meta": {"OBJECT_NAME": "EROS B", "OBJECT_ID": "2006-014A", "EPOCH": "2025-12-17T06:37:50.590272", "MEAN_MOTION": 15.69707885, "ECCENTRICITY": 0.00029918, "INCLINATION": 97.3463, "RA_OF_ASC_NODE": 108.0703, "ARG_OF_PERICENTER": 309.8415, "MEAN_ANOMALY": 50.2584, "EPHEMERIS_TYPE": 0, "CLASSIFICATION_TYPE": "U", "NORAD_CAT_ID": 29079, "ELEMENT_SET_NO": 999, "REV_AT_EPOCH": 9151, "BSTAR": 0.0012492635, "MEAN_MOTION_DOT": 0.00150424, "MEAN_MOTION_DDOT": 0}, "tle": {"line1": "1 29079U 06014A   25351.27627998  .00150424  00000+0  12493-2 0  9990", "line2": "2 29079  97.3463 108.0703 0002991 309.8415  50.2584 15.69707885 91517"}}, "geometry": {"type": "Point", "coordinates": [-69.35481020322763, 15.201257353917521]}}, {"type": "Feature", "properties": {"norad_id": 29228, "name": "RESURS-DK 1", "group": "resource", "lat": 46.218071343311834, "lon": -113.69946173672515, "alt_km": 527.650079937217, "timestamp": "2025-12-17T19:34:07.701245+00:00", "meta": {"OBJECT_NAME": "RESURS-DK 1", "OBJECT_ID": "2006-021A", "EPOCH": "2025-12-17T07:53:01.900608", "MEAN_MOTION": 15.12187613, "ECCENTRICITY": 0.00069378, "INCLINATION": 69.9337, "RA_OF_ASC_NODE": 89.9796, "ARG_OF_PERICENTER": 255.5411, "MEAN_ANOMALY": 104.4985, "EPHEMERIS_TYPE": 0, "CLASSIFICATION_TYPE": "U", "NORAD_CAT_ID": 29228, "ELEMENT_SET_NO": 999, "REV_AT_EPOCH": 7507, "BSTAR": 0.00014104064, "MEAN_MOTION_DOT": 2.334e-05, "MEAN_MOTION_DDOT": 0}, "tle": {"line1": "1 29228U 06021A   25351.32849422  .00002334  00000+0  14104-3 0  9996", "line2": "2 29228  69.9337  89.9796 0006937 255.5411 104.4985 15.12187613 75073"}}, "geometry": {"type": "Point", "coordinates": [-113.69946173672515, 46.218071343311834]}}, {"type": "Feature", "properties": {"norad_id": 29268, "name": "ARIRANG-2 (KOMPSAT-2)", "group": "resource", "lat": -47.09018468807941, "lon": -171.45163433638416, "alt_km": 676.6925466398143, "timestamp": "2025-12-17T19:34:07.701256+00:00", "meta": {"OBJECT_NAME": "ARIRANG-2 (KOMPSAT-2)", "OBJECT_ID": "2006-031A", "EPOCH": "2025-12-17T08:51:23.055840", "MEAN_MOTION": 14.6449813, "ECCENTRICITY": 0.0013314, "INCLINATION": 97.8258, "RA_OF_ASC_NODE": 179.6157, "ARG_OF_PERICENTER": 293.371, "MEAN_ANOMALY": 187.1612, "EPHEMERIS_TYPE": 0, "CLASSIFICATION_TYPE": "U", "NORAD_CAT_ID": 29268, "ELEMENT_SET_NO": 999, "REV_AT_EPOCH": 3486, "BSTAR": 7.7249167e-05, "MEAN_MOTION_DOT": 3.65e-06, "MEAN_MOTION_DDOT": 0}, "tle": {"line1": "1 29268U 06031A   25351.36901685  .00000365  00000+0  77249-4 0  9997", "line2": "2 29268  97.8258 179.6157 0013314 293.3710 187.1612 14.64498130 34868"}}, "geometry": {"type": "Point", "coordinates": [-171.45163433638416, -47.09018468807941]}}, {"type": "Feature", "properties": {"norad_id": 29709, "name": "LAPAN-TUBSAT", "group": "resource", "lat": -81.18128849464459, "lon": 49.13736076109358, "alt_km": 626.6213213553756, "timestamp": "2025-12-17T19:34:07.701267+00:00", "meta": {"OBJECT_NAME": "LAPAN-TUBSAT", "OBJECT_ID": "2007-001A", "EPOCH": "2025-12-17T07:01:37.233984", "MEAN_MOTION": 14.85680107, "ECCENTRICITY": 0.00135922, "INCLINATION": 98.1256, "RA_OF_ASC_NODE": 341.5434, "ARG_OF_PERICENTER": 60.614, "MEAN_ANOMALY": 299.643, "EPHEMERIS_TYPE": 0, "CLASSIFICATION_TYPE": "U", "NORAD_CAT_ID": 29709, "ELEMENT_SET_NO": 999, "REV_AT_EPOCH": 2414, "BSTAR": 0.00010478013, "MEAN_MOTION_DOT": 8.52e-06, "MEAN_MOTION_DDOT": 0}, "tle": {"line1": "1 29709U 07001A   25351.29279206  .00000852  00000+0  10478-3 0  9995", "line2": "2 29709  98.1256 341.5434 0013592  60.6140 299.6430 14.85680107 24145"}}, "geometry": {"type": "Point", "coordinates": [49.13736076109358, -81.18128849464459]}}, {"type": "Feature", "properties": {"norad_id": 31113, "name": "HAIYANG-1B", "group": "resource", "lat": -59.44762937779928, "lon": 141.508931596478, "alt_km": 803.6708789164095, "timestamp": "2025-12-17T19:34:07.701278+00:00", "meta": {"OBJECT_NAME": "HAIYANG-1B", "OBJECT_ID": "2007-010A", "EPOCH": "2025-12-17T05:01:23.485440", "MEAN_MOTION": 14.3096659, "ECCENTRICITY": 0.00140578, "INCLINATION": 98.3318, "RA_OF_ASC_NODE": 335.3028, "ARG_OF_PERICENTER": 25.3848, "MEAN_ANOMALY": 334.8023, "EPHEMERIS_TYPE": 0, "CLASSIFICATION_TYPE": "U", "NORAD_CAT_ID": 31113, "ELEMENT_SET_NO": 999, "REV_AT_EPOCH": 97460, "BSTAR": 5.5625913e-05, "MEAN_MOTION_DOT": 1.05e-06, "MEAN_MOTION_DDOT": 0}, "tle": {"line1": "1 31113U 07010A   25351.20929960  .00000105  00000+0  55626-4 0  9993", "line2": "2 31113  98.3318 335.3028 0014057  25.3848 334.8023 14.30966590974606"}}, "geometry": {"type": "Point", "coordinates": [141.508931596478, -59.44762937779928]}}, {"type": "Feature", "properties": {"norad_id": 31598, "name": "COSMO-SKYMED 1", "group": "resource", "lat": 53.12444085605044, "lon": 166.60320628560277, "alt_km": 574.0126852174799, "timestamp": "2025-12-17T19:34:07.701288+00:00", "meta": {"OBJECT_NAME": "COSMO-SKYMED 1", "OBJECT_ID": "2007-023A", "EPOCH": "2025-12-17T08:05:25.879776", "MEAN_MOTION": 14.95801188, "ECCENTRICITY": 0.00015348, "INCLINATION": 97.8834, "RA_OF_ASC_NODE": 176.7662, "ARG_OF_PERICENTER": 88.0111, "MEAN_ANOMALY": 272.1285, "EPHEMERIS_TYPE": 0, "CLASSIFICATION_TYPE": "U", "NORAD_CAT_ID": 31598, "ELEMENT_SET_NO": 999, "REV_AT_EPOCH": 259, "BSTAR": 0.00032434405, "MEAN_MOTION_DOT": 3.56e-05, "MEAN_MOTION_DDOT": 0}, "tle": {"line1": "1 31598U 07023A   25351.33710509  .00003560  00000+0  32434-3 0  9994", "line2": "2 31598  97.8834 176.7662 0001534  88.0111 272.1285 14.95801188  2592"}}, "geometry": {"type": "Point", "coordinates": [166.60320628560277, 53.12444085605044]}}, {"type": "Feature", "properties": {"norad_id": 31698, "name": "TERRASAR-X", "group": "resource", "lat": 43.520735262926934, "lon": -175.74417135075765, "alt_km": 504.02581768792516, "timestamp": "2025-12-17T19:34:07.701299+00:00", "meta": {"OBJECT_NAME": "TERRASAR-X", "OBJECT_ID": "2007-026A", "EPOCH": "2025-12-16T12:56:11.976864", "MEAN_MOTION": 15.19148195, "ECCENTRICITY": 0.00018105, "INCLINATION": 97.4453, "RA_OF_ASC_NODE": 355.8641, "ARG_OF_PERICENTER": 90.2212, "MEAN_ANOMALY": 269.923, "EPHEMERIS_TYPE": 0, "CLASSIFICATION_TYPE": "U", "NORAD_CAT_ID": 31698, "ELEMENT_SET_NO": 999, "REV_AT_EPOCH": 2549, "BSTAR": 6.9853987e-05, "MEAN_MOTION_DOT": 1.4e-05, "MEAN_MOTION_DDOT": 0}, "tle": {"line1": "1 31698U 07026A   25350.53902751  .00001400  00000+0  69854-4 0  9999", "line2": "2 31698  97.4453 355.8641 0001810  90.2212 269.9230 15.19148195 25494"}}, "geometry": {"type": "Point", "coordinates": [-175.74417135075765, 43.520735262926934]}}, {"type": "Feature", "properties": {"norad_id": 32060, "name": "WORLDVIEW-1 (WV-1)", "group": "resource", "lat": -58.388182309197106, "lon": -82.93827896963846, "alt_km": 498.9662295450962, "timestamp": "2025-12-17T19:34:07.701309+00:00", "meta": {"OBJECT_NAME": "WORLDVIEW-1 (WV-1)", "OBJECT_ID": "2007-041A", "EPOCH": "2025-12-17T07:29:53.430144", "MEAN_MOTION": 15.2476548, "ECCENTRICITY": 8.726e-05, "INCLINATION": 97.3838, "RA_OF_ASC_NODE": 108.729, "ARG_OF_PERICENTER": 115.5269, "MEAN_ANOMALY": 244.6059, "EPHEMERIS_TYPE": 0, "CLASSIFICATION_TYPE": "U", "NORAD_CAT_ID": 32060, "ELEMENT_SET_NO": 999, "REV_AT_EPOCH": 1517, "BSTAR": 0.00027818133, "MEAN_MOTION_DOT": 6.823e-05, "MEAN_MOTION_DDOT": 0}, "tle": {"line1": "1 32060U 07041A   25351.31242396  .00006823  00000+0  27818-3 0  9996", "line2": "2 32060  97.3838 108.7290 0000872 115.5269 244.6059 15.24765480 15170"}}, "geometry": {"type": "Point", "coordinates": [-82.93827896963846, -58.388182309197106]}}]}